{
"type": "FeatureCollection",
"name": "sjqann",
"crs": { "type": "name", "properties": { "name": "urn:ogc:def:crs:OGC:1.3:CRS84" } },
"features": [
{ "type": "Feature", "properties": { "Id": 0, "Area_ha": 351102.079837 }, "geometry": { "type": "Polygon", "coordinates": [ [ [ -74.23599775286452, 4.821786971510639 ], [ -73.981233764208923, 4.823862588708068 ], [ -73.983562940908172, 4.46507577269378 ], [ -74.231840966396774, 4.460610821193356 ], [ -74.23599775286452, 4.821786971510639 ] ] ] } }
]
}
